[{"OBJECT_NAME":"STARLINK-33545","OBJECT_ID":"2024-220P","EPOCH":"2026-03-09T10:12:03.261600","MEAN_MOTION":15.27607917,"ECCENTRICITY":0.00031045,"INCLINATION":43.0013,"RA_OF_ASC_NODE":206.7886,"ARG_OF_PERICENTER":295.1029,"MEAN_ANOMALY":64.9501,"EPHEMERIS_TYPE":0,"CLASSIFICATION_TYPE":"U","NORAD_CAT_ID":62101,"ELEMENT_SET_NO":999,"REV_AT_EPOCH":7298,"BSTAR":0.0014409794,"MEAN_MOTION_DOT":0.00039641,"MEAN_MOTION_DDOT":0},{"OBJECT_NAME":"TEVEL2-6","OBJECT_ID":"2025-052F","EPOCH":"2026-03-09T15:35:24.554400","MEAN_MOTION":15.30760889,"ECCENTRICITY":0.0004769,"INCLINATION":97.4016,"RA_OF_ASC_NODE":325.0381,"ARG_OF_PERICENTER":95.6604,"MEAN_ANOMALY":264.5181,"EPHEMERIS_TYPE":0,"CLASSIFICATION_TYPE":"U","NORAD_CAT_ID":63215,"ELEMENT_SET_NO":999,"REV_AT_EPOCH":5486,"BSTAR":0.00070909,"MEAN_MOTION_DOT":0.00021046,"MEAN_MOTION_DDOT":0}]
